NORAD_CAT_ID,OBJECT_NAME,OBJECT_TYPE,EPOCH,MEAN_MOTION,ECCENTRICITY,INCLINATION,RA_OF_ASC_NODE,ARG_OF_PERICENTER,MEAN_ANOMALY,BSTAR,MEAN_MOTION_DOT,MEAN_MOTION_DDOT,TLE_LINE0,TLE_LINE1,TLE_LINE2,SEMIMAJOR_AXIS,PERIOD,APOGEE,PERIGEE,DECAYED
53746.0,STARLINK-4589,PAYLOAD,2022-12-13 05:51:50,15.08834737,0.0002201,53.2172,172.36,50.4373,309.6814,0.00013133,1.802e-05,0.0,0 STARLINK-4589,1 53746U 22107AY  22347.24433365  .00001802  00000-0  13133-3 0  9990,2 53746  53.2172 172.3600 0002201  50.4373 309.6814 15.08834737 15309,6917.896,95.438,541.284,538.239,0.0
53746.0,STARLINK-4589,PAYLOAD,2022-12-13 12:13:22,15.08836172,0.0002221,53.2171,171.1705,51.0563,309.0627,0.00012676,1.73e-05,0.0,0 STARLINK-4589,1 53746U 22107AY  22347.50929384  .00001730  00000-0  12676-3 0  9991,2 53746  53.2171 171.1705 0002221  51.0563 309.0627 15.08836172 16123,6917.892,95.438,541.294,538.221,0.0
53746.0,STARLINK-4589,PAYLOAD,2022-12-13 18:34:55,15.08839929,0.0002159,53.2165,169.9812,50.1209,309.9972,0.00011579,1.555e-05,0.0,0 STARLINK-4589,1 53746U 22107AY  22347.77425216  .00001555  00000-0  11579-3 0  9991,2 53746  53.2165 169.9812 0002159  50.1209 309.9972 15.08839929 16166,6917.880999999999,95.438,541.239,538.252,0.0
53746.0,STARLINK-4589,PAYLOAD,2022-12-14 12:04:09,15.08847522,0.0002276,53.2164,166.71,52.4771,307.6428,0.00013993,1.94e-05,0.0,0 STARLINK-4589,1 53746U 22107AY  22348.50288610  .00001940  00000-0  13993-3 0  9998,2 53746  53.2164 166.7100 0002276  52.4771 307.6428 15.08847522 15493,6917.857,95.437,541.297,538.148,0.0
53746.0,STARLINK-4589,PAYLOAD,2022-12-14 20:01:04,15.08852018,0.0002324,53.2165,165.2237,52.1495,307.9707,0.00014911,2.086e-05,0.0,0 STARLINK-4589,1 53746U 22107AY  22348.83408159  .00002086  00000-0  14911-3 0  9999,2 53746  53.2165 165.2237 0002324  52.1495 307.9707 15.08852018 16325,6917.844,95.437,541.316,538.101,0.0
53746.0,STARLINK-4589,PAYLOAD,2022-12-15 05:33:24,15.08841284,0.0002379,53.2168,163.4397,53.0091,307.1119,2.5529e-05,1.18e-06,0.0,0 STARLINK-4589,1 53746U 22107AY  22349.23153171  .00000118  00000-0  25529-4 0  9997,2 53746  53.2168 163.4397 0002379  53.0091 307.1119 15.08841284 15609,6917.876,95.437,541.387,538.096,0.0
53746.0,STARLINK-4589,PAYLOAD,2022-12-15 11:54:56,15.08843251,0.0002397,53.2169,162.2502,52.2208,307.9001,4.1659e-05,3.75e-06,0.0,0 STARLINK-4589,1 53746U 22107AY  22349.49648977  .00000375  00000-0  41659-4 0  9995,2 53746  53.2169 162.2502 0002397  52.2208 307.9001 15.08843251 16421,6917.87,95.437,541.394,538.077,0.0
53746.0,STARLINK-4589,PAYLOAD,2022-12-15 18:16:29,15.08846223,0.0002281,53.217,161.0609,51.5466,308.573,7.2942e-05,8.73e-06,0.0,0 STARLINK-4589,1 53746U 22107AY  22349.76144688  .00000873  00000-0  72942-4 0  9997,2 53746  53.2170 161.0609 0002281  51.5466 308.5730 15.08846223 16460,6917.861,95.437,541.304,538.148,0.0
53746.0,STARLINK-4589,PAYLOAD,2022-12-15 23:02:38,15.08848201,0.0002336,53.2164,160.1689,51.4104,308.7097,8.4205e-05,1.052e-05,0.0,0 STARLINK-4589,1 53746U 22107AY  22349.96016470  .00001052  00000-0  84205-4 0  9991,2 53746  53.2164 160.1689 0002336  51.4104 308.7097 15.08848201 15713,6917.855,95.437,541.336,538.104,0.0
53746.0,STARLINK-4589,PAYLOAD,2022-12-16 11:45:42,15.08853061,0.0002353,53.2163,157.7899,52.2628,307.8577,0.00011758,1.584e-05,0.0,0 STARLINK-4589,1 53746U 22107AY  22350.49007934  .00001584  00000-0  11758-3 0  9998,2 53746  53.2163 157.7899 0002353  52.2628 307.8577 15.08853061 16574,6917.84,95.437,541.3330000000002,538.078,0.0
53746.0,STARLINK-4589,PAYLOAD,2022-12-16 19:42:38,15.08843889,0.0002218,53.2156,156.3024,49.2378,310.8806,-1.3619999999999998e-06,-3.1e-06,0.0,0 STARLINK-4589,1 53746U 22107AY  22350.82128125 -.00000310  00000-0 -13620-5 0  9991,2 53746  53.2156 156.3024 0002218  49.2378 310.8806 15.08843889 16621,6917.869000000002,95.437,541.268,538.1990000000002,0.0
53746.0,STARLINK-4589,PAYLOAD,2022-12-16 21:18:01,15.0884283,0.0002243,53.2158,156.0059,50.6812,309.4379,-1.5284e-05,-5.32e-06,0.0,0 STARLINK-4589,1 53746U 22107AY  22350.88752168 -.00000532  00000-0 -15284-4 0  9990,2 53746  53.2158 156.0059 0002243  50.6812 309.4379 15.08842830 15853,6917.871999999999,95.437,541.288,538.185,0.0
53746.0,STARLINK-4589,PAYLOAD,2022-12-17 11:36:30,15.08840166,0.0002294,53.2163,153.3289,50.3597,309.7597,3.2015e-05,2.21e-06,0.0,0 STARLINK-4589,1 53746U 22107AY  22351.48368371  .00000221  00000-0  32015-4 0  9990,2 53746  53.2163 153.3289 0002294  50.3597 309.7597 15.08840166 16729,6917.88,95.438,541.332,538.158,0.0
53746.0,STARLINK-4589,PAYLOAD,2022-12-17 19:33:25,15.088428699999998,0.0002267,53.2163,151.8424,49.7759,310.3432,8.855e-05,1.121e-05,0.0,0 STARLINK-4589,1 53746U 22107AY  22351.81488237  .00001121  00000-0  88550-4 0  9996,2 53746  53.2163 151.8424 0002267  49.7759 310.3432 15.08842870 16770,6917.871999999999,95.437,541.305,538.168,0.0
53746.0,STARLINK-4589,PAYLOAD,2022-12-18 03:30:21,15.08845289,0.0002274,53.2162,150.3555,50.2413,309.8779,0.00017956,2.571e-05,0.0,0 STARLINK-4589,1 53746U 22107AY  22352.14608161  .00002571  00000-0  17956-3 0  9994,2 53746  53.2162 150.3555 0002274  50.2413 309.8779 15.08845289 16044,6917.864000000001,95.437,541.302,538.156,0.0
53746.0,STARLINK-4589,PAYLOAD,2022-12-18 11:27:17,15.08848124,0.0002285,53.216,148.8688,50.4378,309.6815,0.00026903,3.997e-05,0.0,0 STARLINK-4589,1 53746U 22107AY  22352.47728072  .00003997  00000-0  26903-3 0  9999,2 53746  53.2160 148.8688 0002285  50.4378 309.6815 15.08848124 16876,6917.856,95.437,541.3009999999998,538.14,0.0
53746.0,STARLINK-4589,PAYLOAD,2022-12-18 19:24:12,15.08854185,0.0002276,53.2159,147.382,50.2075,309.9117,0.00046724,7.159e-05,0.0,0 STARLINK-4589,1 53746U 22107AY  22352.80847812  .00007159  00000-0  46724-3 0  9997,2 53746  53.2159 147.3820 0002276  50.2075 309.9117 15.08854185 16926,6917.837,95.437,541.2769999999998,538.128,0.0
53746.0,STARLINK-4589,PAYLOAD,2022-12-18 22:34:58,15.08856874,0.0002284,53.2159,146.7872,50.297,309.8223,0.00048454,7.435e-05,0.0,0 STARLINK-4589,1 53746U 22107AY  22352.94095652  .00007435  00000-0  48454-3 0  9998,2 53746  53.2159 146.7872 0002284  50.2970 309.8223 15.08856874 16169,6917.829000000002,95.436,541.274,538.114,0.0
53746.0,STARLINK-4589,PAYLOAD,2022-12-19 19:14:58,15.08854155,0.0002295,53.2161,142.9214,51.3913,308.7285,0.00018109,2.596e-05,0.0,0 STARLINK-4589,1 53746U 22107AY  22353.80206923  .00002596  00000-0  18109-3 0  9996,2 53746  53.2161 142.9214 0002295  51.3913 308.7285 15.08854155 17078,6917.837,95.437,541.29,538.114,0.0
53746.0,STARLINK-4589,PAYLOAD,2022-12-19 22:25:44,15.08855753,0.0002301,53.216,142.3265,50.9008,309.2189,0.00018757,2.699e-05,0.0,0 STARLINK-4589,1 53746U 22107AY  22353.93454731  .00002699  00000-0  18757-3 0  9995,2 53746  53.2160 142.3265 0002301  50.9008 309.2189 15.08855753 16315,6917.831999999999,95.437,541.289,538.105,0.0
53746.0,STARLINK-4589,PAYLOAD,2022-12-20 03:11:53,15.08860796,0.00023,53.216,141.4344,51.0299,309.0898,0.00025436,3.765e-05,0.0,0 STARLINK-4589,1 53746U 22107AY  22354.13326345  .00003765  00000-0  25436-3 0  9994,2 53746  53.2160 141.4344 0002300  51.0299 309.0898 15.08860796 17124,6917.816999999999,95.436,541.273,538.091,0.0
53746.0,STARLINK-4589,PAYLOAD,2022-12-20 19:05:45,15.0884462,0.0002216,53.216,138.4612,50.4969,309.6219,-0.00013124,-2.377e-05,0.0,0 STARLINK-4589,1 53746U 22107AY  22354.79566278 -.00002377  00000-0 -13124-3 0  9998,2 53746  53.2160 138.4612 0002216  50.4969 309.6219 15.08844620 16446,6917.866,95.437,541.264,538.198,0.0
53746.0,STARLINK-4589,PAYLOAD,2022-12-21 09:24:14,15.08839176,0.0002187,53.2175,135.7852,50.664,309.4546,-0.00010979,-2.035e-05,0.0,0 STARLINK-4589,1 53746U 22107AY  22355.39183350 -.00002035  00000-0 -10979-3 0  9997,2 53746  53.2175 135.7852 0002187  50.6640 309.4546 15.08839176 16534,6917.8830000000025,95.438,541.261,538.235,0.0
53746.0,STARLINK-4589,PAYLOAD,2022-12-22 04:28:51,15.08843073,0.0002053,53.2177,132.2162,49.2592,310.8578,-3.4727e-05,-8.41e-06,0.0,0 STARLINK-4589,1 53746U 22107AY  22356.18670817 -.00000841  00000-0 -34727-4 0  9995,2 53746  53.2177 132.2162 0002053  49.2592 310.8578 15.08843073 16659,6917.871,95.437,541.156,538.316,0.0
53746.0,STARLINK-4589,PAYLOAD,2022-12-22 10:50:23,15.08842368,0.0002383,53.2172,131.0275,48.419,311.7006,6.2648e-05,7.09e-06,0.0,0 STARLINK-4589,1 53746U 22107AY  22356.45166613  .00000709  00000-0  62648-4 0  9993,2 53746  53.2172 131.0275 0002383  48.4190 311.7006 15.08842368 17470,6917.873000000001,95.437,541.387,538.09,0.0
53746.0,STARLINK-4589,PAYLOAD,2022-12-22 17:11:56,15.08846648,0.0002138,53.2174,129.8372,48.9257,311.1919,4.1107e-05,3.66e-06,0.0,0 STARLINK-4589,1 53746U 22107AY  22356.71662234  .00000366  00000-0  41107-4 0  9998,2 53746  53.2174 129.8372 0002138  48.9257 311.1919 15.08846648 17519,6917.86,95.437,541.2040000000002,538.246,0.0
53746.0,STARLINK-4589,PAYLOAD,2022-12-23 12:16:35,15.08825793,0.0002068,53.2174,126.2689,46.4348,313.6816,3.0685e-05,2e-06,0.0,0 STARLINK-4589,1 53746U 22107AY  22357.51151839  .00000200  00000-0  30685-4 0  9997,2 53746  53.2174 126.2689 0002068  46.4348 313.6816 15.08825793 16854,6917.924,95.438,541.219,538.3580000000002,0.0
53746.0,STARLINK-4589,PAYLOAD,2022-12-23 15:27:21,15.08824006,0.0002215,53.2173,125.6744,38.1569,321.958,0.0001348,1.857e-05,0.0,0 STARLINK-4589,1 53746U 22107AY  22357.64399762  .00001857  00000-0  13480-3 0  9992,2 53746  53.2173 125.6744 0002215  38.1569 321.9580 15.08824006 17650,6917.929,95.439,541.327,538.262,0.0
53746.0,STARLINK-4589,PAYLOAD,2022-12-24 18:28:54,15.08842486,0.000213,53.2178,120.6199,41.4272,318.6881,7.6916e-06,-1.66e-06,0.0,0 STARLINK-4589,1 53746U 22107AY  22358.77007111 -.00000166  00000-0  76916-5 0  9999,2 53746  53.2178 120.6199 0002130  41.4272 318.6881 15.08842486 17040,6917.873000000001,95.437,541.211,538.264,0.0
